WNISAT-1                
1 39423U 13066H   24117.51808827  .00003104  00000+0  60060-3 0  9993
2 39423  97.6735 316.0305 0170628 171.0567 189.3740 14.55074482552924
TRITON-1                
1 39427U 13066M   24117.79203428  .00006721  00000+0  95637-3 0  9999
2 39427  97.8432  37.4529 0101933 247.3092 111.7315 14.73630304558642
DELFI-N3XT              
1 39428U 13066N   24117.73888553  .00013907  00000+0  18060-2 0  9990
2 39428  97.8397  37.4652 0100578 255.1126 103.8929 14.77302011558490
GOMX-1                  
1 39430U 13066Q   24117.85873844  .00006412  00000+0  10682-2 0  9998
2 39430  97.7391 355.3421 0142284  56.3558 305.1125 14.63793487555355
CUBEBUG-2 (LO-74)       
1 39440U 13066AA  24117.76587405  .00009367  00000+0  11148-2 0  9994
2 39440  97.8105  62.5814 0072624  82.4418 278.5038 14.82672094560711
NEE-02 KRYSAOR          
1 39441U 13066AB  24117.78499531  .00006288  00000+0  80355-3 0  9995
2 39441  97.8201  58.6619 0076645 102.8100 258.1690 14.79664740560331
FUNCUBE-1 (AO-73)       
1 39444U 13066AE  24117.83111948  .00016253  00000+0  16023-2 0  9990
2 39444  97.7167  77.9911 0047082 313.4405  46.2900 14.91252693562453
UWE-3                   
1 39446U 13066AG  24117.80014220  .00012884  00000+0  14484-2 0  9999
2 39446  97.7781  68.6747 0062149  30.0588 330.4171 14.85422405561074
BRITE-CA1 (TORONTO)     
1 40020U 14033L   24117.33290293  .00003136  00000+0  51436-3 0  9997
2 40020  97.8691 256.3118 0082262 257.4687 101.7308 14.69175302527252
DUCHIFAT-1              
1 40021U 14033M   24117.68404054  .00023588  00000+0  16340-2 0  9995
2 40021  98.0893  98.9480 0010665 273.9584  86.0422 15.05601735536379
NANOSATC-BR1            
1 40024U 14033Q   24117.80359143  .00022171  00000+0  16900-2 0  9999
2 40024  98.0590  87.8334 0006413 354.5751   5.5402 15.02039963535535
QB50P1                  
1 40025U 14033R   24117.82847907  .00017151  00000+0  14252-2 0  9992
2 40025  98.0383  76.9476 0008477 341.5670  18.5243 14.98777294535188
QB50P2                  
1 40032U 14033Y   24117.82056321  .00015541  00000+0  13330-2 0  9999
2 40032  98.0053  68.9639 0008745 341.4029  18.6872 14.97568198534983
PERSEUS-M2              
1 40037U 14033AD  24117.79794238  .00005056  00000+0  52736-3 0  9990
2 40037  97.9257  48.4253 0013535  11.6385 348.5143 14.90141360534179
PERSEUS-M1              
1 40039U 14033AF  24117.74798290  .00006129  00000+0  64179-3 0  9995
2 40039  97.9068  44.5767 0013271  12.2213 347.9324 14.89899070534026
POLYITAN-1              
1 40042U 14033AJ  24117.85281592  .00022955  00000+0  17882-2 0  9996
2 40042  98.0607  80.1029 0012749 313.9165  46.1005 15.01155708535139
TIGRISAT                
1 40043U 14033AK  24117.91662441  .00006997  00000+0  93763-3 0  9991
2 40043  97.6911 282.8900 0056995 110.3457 250.3891 14.78553856529882
AEROCUBE 6A             
1 40045U 14033AM  24117.71769877  .00014572  00000+0  17663-2 0  9994
2 40045  97.6677 293.2677 0052284  91.0400 269.6805 14.82714071530164
AEROCUBE 6B             
1 40046U 14033AN  24117.44617325  .00012208  00000+0  14530-2 0  9999
2 40046  97.6642 291.6680 0050845  87.6746 273.0289 14.83560314530174
UKUBE-1                 
1 40074U 14037F   24117.74423308  .00016469  00000+0  15932-2 0  9993
2 40074  98.3427  44.5511 0002544 216.4997 143.6047 14.92852676531108
BRITE-PL2 (HEWELIUSZ)   
1 40119U 14049B   24117.79918715  .00005910  00000+0  64029-3 0  9993
2 40119  97.8786 217.7217 0016378 169.7217 190.4337 14.88499910524930
CP10 (EXOCUBE)          
1 40380U 15003E   24117.27568993  .00183420  00000+0  14459-2 0  9990
2 40380  99.0982 128.0375 0041828 291.7960  67.8849 15.69688061511253
AEROCUBE 5C             
1 40965U 15058B   24117.52753037  .00007166  00000+0  67391-3 0  9998
2 40965  64.7690 160.1885 0187789 324.1687  34.6939 14.82172863249379
AEROCUBE 7              
1 40966U 15058C   24117.47048252  .00009384  00000+0  85048-3 0  9992
2 40966  64.7667 154.5931 0183117 323.8743  35.0104 14.83870489249439
BISONSAT                
1 40968U 15058E   24117.53824428  .00009119  00000+0  83841-3 0  9993
2 40968  64.7771 167.0615 0182850 318.9683  39.7787 14.83396695   150
SNAP-3 EDDIE            
1 40972U 15058J   24117.69986759  .00034898  00000+0  25044-2 0  9993
2 40972  64.7678 120.2917 0156717 318.0649  40.8546 14.94743665   187
PROPCUBE 1 (FLORA)      
1 40976U 15058N   24117.69761826  .00005891  00000+0  58670-3 0  9996
2 40976  64.7759 183.9998 0186190 322.5095  36.3142 14.80430212   176
VELOX-II                
1 41171U 15077F   24117.30602964  .00151650  00000+0  19372-2 0  9990
2 41171  14.9880 104.1409 0000698  18.7423 341.2929 15.57307137463645
HORYU-4                 
1 41340U 16012D   24117.70763292  .00021987  00000+0  11423-2 0  9992
2 41340  31.0022 310.7532 0009280 166.4457 193.6433 15.14904557450330
E-ST@R-II               
1 41459U 16025D   24117.63123228  .01125921  62268-3  25006-2 0  9992
2 41459  98.1190   4.1502 0021529  69.3345 291.0235 15.97596580441538
RAVAN                   
1 41849U 16067B   24117.74158785  .00018595  00000+0  10590-2 0  9990
2 41849  98.0625 292.4662 0013457 199.8648 160.2059 15.12804436408205
CELTEE 1                
1 41850U 16067C   24117.41490773  .00011859  00000+0  82269-3 0  9991
2 41850  98.0987 284.2917 0001077  55.8161 304.3166 15.05759934407636
OPTICUBE 04             
1 41851U 16067D   24117.40822054  .00007378  00000+0  56233-3 0  9995
2 41851  98.0688 280.2118 0018133 229.6299 130.3342 15.02236087407468
AEROCUBE 8D             
1 41852U 16067E   24117.70932007  .00013182  00000+0  88770-3 0  9990
2 41852  98.1039 284.2253 0003992 279.2112  80.8663 15.06833546407648
AEROCUBE 8C             
1 41853U 16067F   24117.25632595  .00013631  00000+0  91907-3 0  9995
2 41853  98.0852 282.4583 0007874 207.4821 152.5990 15.06759768407564
PROMETHEUS 2-1          
1 41854U 16067G   24117.74384187  .00029039  00000+0  15569-2 0  9999
2 41854  98.0983 289.5103 0013254 230.2180 129.7883 15.14862699407943
PROMETHEUS 2-3          
1 41855U 16067H   24117.93759216  .00030371  00000+0  16285-2 0  9997
2 41855  98.0911 289.2548 0011113 238.6418 121.3726 15.14870725407979
DIDO-2                  
1 42000U 17008BE  24117.70438382  .00181020  00000+0  13869-2 0  9992
2 42000  97.1410 177.7845 0002399 282.3343  77.7652 15.71564667400676
AALTO-1                 
1 42775U 17036L   24117.62672460  .00104175  00000+0  13418-2 0  9996
2 42775  97.1107 146.9462 0005736  58.6317 301.5500 15.58668657381053
URSA MAIOR              
1 42776U 17036M   24117.63145574  .00195168  00000+0  15843-2 0  9995
2 42776  97.1065 150.3387 0003171  64.8405 295.3187 15.70128532381261
DIAMOND RED             
1 42783U 17036U   24117.64658277  .13634305  23923-5  37268-3 0  9999
2 42783  97.0708 157.6240 0010367 256.2840 103.7309 16.44804491381754
CICERO 6                
1 42793U 17036AE  24117.61805492  .00295785  00000+0  18971-2 0  9995
2 42793  97.0931 154.5602 0002113  96.8423 263.3083 15.75421365381644
CORVUS BC2              
1 42846U 17042X   24117.80389367  .00008001  00000+0  69601-3 0  9990
2 42846  97.3750 305.7866 0007199 222.1697 137.8972 14.97180113369759
CORVUS BC1              
1 42847U 17042Y   24117.50282577  .00006810  00000+0  59100-3 0  9992
2 42847  97.3738 305.8989 0007242 227.2439 132.8175 14.97326974369726
MIRATA                  
1 43015U 17073C   24117.66575255  .00037892  00000+0  18563-2 0  9990
2 43015  97.6023   3.0834 0178992  76.9787 285.1354 15.05022054348579
MAKERSAT 0              
1 43016U 17073D   24117.90711916  .00024960  00000+0  14447-2 0  9993
2 43016  97.5877 358.3547 0202595  94.8982 267.5403 14.96472078348243
CORVUS BC3              
1 43118U 18004H   24117.65421144  .00251353  00000+0  17043-2 0  9997
2 43118  97.2882 201.7972 0001087  87.0715 273.0674 15.74251369350771
GOMX-4B                 
1 43196U 18015E   24117.41747439  .00071032  00000+0  97321-3 0  9999
2 43196  97.6063 287.3261 0008882 149.2178 210.9599 15.57106271347456
GOMX-4A                 
1 43197U 18015F   24117.74174081  .00115281  00000+0  11450-2 0  9996
2 43197  97.5978 292.0287 0007225 141.0179 219.1602 15.65358632347807
CICERO 10               
1 43690U 18088A   24117.68968243  .00152535  00000+0  14619-2 0  9991
2 43690  85.0175 216.2265 0006642 145.6026 214.5671 15.66149246304115
PROXIMA I               
1 43694U 18088E   24117.70539251  .00505288  00000+0  17268-2 0  9991
2 43694  85.0062 209.3294 0001801 245.6166 114.4924 15.88569274304612
PROXIMA II              
1 43696U 18088G   24117.67117383  .00462387  00000+0  17407-2 0  9994
2 43696  85.0077 209.5351 0001594 245.1679 114.9432 15.86684446304581
SIRION PATHFINDER-2     
1 43759U 18099B   24117.94472335  .00011084  00000+0  84598-3 0  9997
2 43759  97.5351 175.5454 0014824 103.0593 257.2288 15.02069974294812
CORVUS BC4              
1 43767U 18099K   24117.95559778  .00010058  00000+0  78247-3 0  9998
2 43767  97.5197 172.9115 0009401 166.3772 193.7708 15.01420124294706
MOVE-II                 
1 43780U 18099Y   24117.62851072  .00031755  00000+0  17734-2 0  9999
2 43780  97.5249 181.1735 0008517 150.4615 209.7099 15.13425071295123
SPACEBEE-7              
1 43816U 18099BL  24117.60998770  .00024413  00000+0  15051-2 0  9997
2 43816  97.5502 181.9870 0011635 107.9627 252.2871 15.09880606294627
SPACEBEE-6              
1 43818U 18099BN  24117.92098845  .00057156  00000+0  26656-2 0  9991
2 43818  97.5444 186.8499 0010121 113.7141 246.5156 15.19602889295113
SHIELDS 1               
1 43850U 18104B   24117.81819129  .00020357  00000+0  57742-3 0  9992
2 43850  85.0223 317.9444 0009142 262.4933  97.5278 15.36061264298279
